#cP2023  5 23  0  0  0.00000000      96 ORBIT IGS20 HLM  IGS
## 2263 172800.00000000   900.00000000 60087 0.0000000000000
+   32   G01G02G03G04G05G06G07G08G09G10G11G12G13G14G15G16G17
+        G18G19G20G21G22G23G24G25G26G27G28G29G30G31G32  0  0
+          0  0  0  0  0  0  0  0  0  0  0  0  0  0  0  0  0
+          0  0  0  0  0  0  0  0  0  0  0  0  0  0  0  0  0
+          0  0  0  0  0  0  0  0  0  0  0  0  0  0  0  0  0
++         2  2  4  2  2  2  2  2  2  3  2  2  2  3  2  2  2
++         2  2  2  2  3  2  2  3  3  2  2  2  2  2  2  0  0
++         0  0  0  0  0  0  0  0  0  0  0  0  0  0  0  0  0
++         0  0  0  0  0  0  0  0  0  0  0  0  0  0  0  0  0
++         0  0  0  0  0  0  0  0  0  0  0  0  0  0  0  0  0
%c G  cc GPS ccc cccc cccc cccc cccc ccccc ccccc ccccc ccccc
%c cc cc ccc ccc cccc cccc cccc cccc ccccc ccccc ccccc ccccc
%f  1.2500000  1.025000000  0.00000000000  0.000000000000000
%f  0.0000000  0.000000000  0.00000000000  0.000000000000000
%i    0    0    0    0      0      0      0      0         0
%i    0    0    0    0      0      0      0      0         0
/* RAPID ORBIT COMBINATION FROM WEIGHTED AVERAGE OF:        
/* cod emr esa gfz grg jpl ngs sio usn                      
/* REFERENCED TO IGS TIME (IGST) AND TO WEIGHTED MEAN POLE: 
/* PCV:IGS20_2233 OL/AL:FES2014b NONE     Y  ORB:CMB CLK:CMB
*  2023  5 23 11 15  0.00000000
PG01   9038.929947 -19006.441284 -16314.587585    183.280301  5  2  5  94       
PG02  22154.213630 -13794.208449   5089.408671   -593.301178  5  4  5  84       
PG03  -1749.922480 -16382.974729 -20991.503377   -294.696311 13  9 12 118       
PG04    498.484203 -26353.021857  -2717.590273     48.806681  6  8  5  87       
PG05 -15350.336107   8477.693981  19809.266820   -128.285142  5  6  3  96       
PG06 -21074.088864   1635.192823 -16084.317365    587.639580  8  7  6 100       
PG07  -6758.553198 -14267.006429  21784.049344    171.203862  8  3  6  82       
PG08   7445.791617 -21076.880857  13964.859497   -123.812757  5  4  3  96       
PG09  -7662.461332 -24403.582151   7000.939821   -152.547768  6  6  6  64       
PG10  24216.684570  11318.980390    110.494686    -38.115448  6  6  7  98       
PG11 -23376.789605  12199.960931  -3006.846323   -207.347716  9  6  8  94       
PG12  -2477.351258  15685.864570 -21580.352870   -379.519303  4  9  2  75       
PG13 -12961.031954  14530.923065  17791.266363    523.919487  5  8  4 103       
PG14 -22782.442794 -13572.781443   2583.760234     66.398032 11 10  8  85       
PG15  -4665.402757  22333.900496  12918.292194     42.122440  6  5  4  86       
PG16  18848.673509  -3673.544531  18233.992539   -498.500421  8  5  6  94       
PG17 -12904.353941 -13402.734890 -18487.356546    715.834941  9  8  6  62       
PG18   9237.215140  11766.231170  21949.367922   -278.002176  5  5  7  74       
PG19 -14786.799614  -4546.471926 -21846.847005    320.705927 10  8  6  81       
PG20 -22077.071365   4337.484318  13997.701110    432.027033  5  9  7  94       
PG21  15457.789725 -19543.668305  -7270.511014    153.646451  4  2  3  62       
PG22  14971.824471    441.842627 -21484.629591    486.036337  7  8  4  58       
PG23  17885.178867  16129.170593  11372.824550     26.570446 10  6  8  55       
PG24 -11179.746786  20900.614526 -11903.026080   -198.981021  2  3  6  95       
PG25  10489.274594  17957.536091 -16985.731300    444.805813  8  7  9  89       
PG26  25144.992284   3013.954777   8442.324742    240.399640  9  9  9  97       
PG27  13011.387515 -10635.549980  20211.269255     31.538161  6  1  4  95       
PG28  20258.477859   -234.112278 -17195.099147     79.808902  7  4  6  94       
PG29   3453.841259  25858.927210   4670.860686   -600.428752  7  6  6  91       
PG30 -16660.349582  -6337.159729  19877.664588   -515.554736  6  2  4  83       
PG31  23927.691042  -8836.876716  -8365.771251   -216.684126  8  5  6  92       
PG32  14702.555752  10303.938101 -19457.393870   -483.313349  7  5  6  73       
*  2023  5 23 11 30  0.00000000
PG01  10495.468525 -19890.770648 -14176.062719    183.277761  5  3  4  94       
PG02  21799.130696 -13172.327683   7841.418002   -593.297785  5  4  4  77       
PG03    482.827312 -15476.721431 -21727.596759   -294.685781 13  9 11 111       
PG04    793.466108 -25901.782105  -5531.184026     48.815563  6  8  5  68       
PG05 -17388.941441   7596.202333  18458.311782   -128.286596  5  6  4  57       
PG06 -19568.468415    394.178394 -17941.518087    587.638874  8  7  6  99       
PG07  -4814.854605 -15638.923443  21300.658759    171.195385  7  3  6  80       
PG08   7912.879786 -19384.294056  16033.485779   -123.814581  5  5  3  78       
PG09  -7492.883306 -25087.827662   4250.856038   -152.540022  6  6  6  84       
PG10  24003.857682  11422.679889   2976.655862    -38.117739  7  6  7  93       
PG11 -23091.528273  11717.960104  -5814.636051   -207.360500  9  6  8  88       
PG12  -4653.309015  14603.287523 -21974.793033   -379.523340  3  9  2  89       
PG13 -13057.309396  12369.131593  19295.678705    523.924016  3  8  4 112       
PG14 -22258.058518 -13629.110002   5359.192604     66.409387 11  9  8 101       
PG15  -5370.402254  20777.976215  15021.749476     42.125836  6  6  4  85       
PG16  20575.496056  -2602.824881  16539.563356   -498.497179  9  6  6  88       
PG17 -12884.355364 -15505.267056 -16810.885034    715.836460  8  8  6  76       
PG18   7199.510152  13221.685049  21870.231223   -278.016121  5  5  7  83       
PG19 -14786.504078  -6955.336836 -21223.593020    320.710372 10  8  6  85       
PG20 -23455.039800   3756.268522  11718.023683    432.025228  5  9  7  97       
PG21  16229.837844 -19809.380143  -4472.260863    153.646408  4  2  3  82       
PG22  15049.178925   2981.732210 -21246.051498    486.042262  8  8  4  79       
PG23  16494.148679  15763.502105  13729.882050     26.573375 10  6  7  73       
PG24 -12274.118607  21468.338875  -9456.812744   -198.993273  3  3  6  76       
PG25   8611.514249  17332.730624 -18618.143874    444.808163  8  7  8  94       
PG26  25829.504579   3557.642320   5819.638954    240.399051 11 10  9 135       
PG27  13402.028517  -8244.087097  21080.845187     31.531041  5  2  3 101       
PG28  18747.533190   1166.651084 -18798.536897     79.811280  7  4  6  92       
PG29   3254.947333  26245.476324   1810.743494   -600.429714  8  6  6  83       
PG30 -14857.903154  -7777.151222  20756.603702   -515.552790  6  1  5  88       
PG31  23182.105014  -8044.229747 -10891.957655   -216.684945  7  5  5  84       
PG32  14860.026011  12475.897506 -18045.136277   -483.321526  7  5  6  94       
*  2023  5 23 11 45  0.00000000
PG01  11705.855575 -20694.171272 -11794.285294    183.275315  4  4  4  85       
PG02  21262.595126 -12323.755041  10459.870012   -593.294108  6  4  4  88       
PG03   2821.727835 -14674.474982 -22094.855477   -294.675208 12  9 10 102       
PG04   1156.779311 -25155.725306  -8248.906846     48.824453  6  8  5  72       
PG05 -19305.116269   6875.122041  16786.555282   -128.287977  5  5  5  56       
PG06 -17986.357506  -1054.869391 -19489.668905    587.638178  7  7  6  85       
PG07  -2995.591832 -17064.895600  20462.873226    171.186763  7  2  6  70       
PG08   8509.570721 -17503.792561  17820.242986   -123.817267  6  5  4  66       
PG09  -7296.006579 -25470.074247   1427.314396   -152.532403  6  6  6  91       
PG10  23496.639168  11430.146605   5792.676743    -38.119295  7  6  7  97       
PG11 -22583.523752  11031.827942  -8522.113213   -207.373242  9  6  8  91       
PG12  -6906.326120  13629.497940 -22000.817105   -379.527459  2  9  3  93       
PG13 -13273.734048  10063.567715  20461.163148    523.928949  3  8  4 102       
PG14 -21451.179289 -13598.903903   8043.244947     66.420797 11  8  9  93       
PG15  -6218.507615  19040.405302  16855.774336     42.128802  6  7  5  53       
PG16  22163.671408  -1716.123735  14559.414544   -498.494128  9  6  7  96       
PG17 -12952.187789 -17394.652069 -14834.738773    715.838027  8  8  6  77       
PG18   5265.854455  14767.012839  21414.396923   -278.030136  5  5  7  78       
PG19 -14911.826792  -9269.089089 -20244.255123    320.715307 10  8  6  77       
PG20 -24595.142750   3291.452466   9235.010474    432.023216  6  9  8  91       
PG21  16751.316546 -19881.306598  -1591.889982    153.646232  5  2  3  61       
PG22  15251.372015   5462.625310 -20626.925342    486.047915  8  9  4  61       
PG23  14843.855985  15395.987427  15852.448241     26.576243  9  6  7  76       
PG24 -13143.097452  21883.985881  -6846.322780   -199.005606  4  4  5  78       
PG25   6548.070349  16752.616418 -19940.597534    444.810516  8  7  8  85       
PG26  26251.440653   3983.680425   3098.500794    240.398496 12 11  9 108       
PG27  13930.352943  -5802.278069  21577.088398     31.523938  5  2  3 101       
PG28  17191.155586   2753.962519 -20079.019886     79.813674  8  4  5  96       
PG29   3043.737458  26316.958605  -1080.724957   -600.430889  9  6  6  87       
PG30 -13065.301959  -9354.745669  21283.343299   -515.550742  6  1  6  98       
PG31  22267.330326  -7042.833600 -13236.612374   -216.685685  7  5  5 100       
PG32  15096.661088  14459.163507 -16320.123937   -483.329703  8  6  7  84       
EOF
